TIANQI-6                
1 46810U 20076D   26192.44735860  .00001878  00000+0  12363-3 0  9992
2 46810  34.9986 259.5561 0009925  20.0104 340.0994 15.07340541312246
KSM1-C                  
1 46906U 20081B   26192.55009789  .00005155  00000+0  19276-3 0  9992
2 46906  36.8957 268.4905 0001542  47.3712 312.7167 15.27143773312895
KSM1-D                  
1 46907U 20081C   26192.51908257  .00004800  00000+0  19126-3 0  9997
2 46907  36.8971 278.1654 0002410 100.6234 259.4787 15.25072008312815
KSM1-A                  
1 46912U 20081H   26192.50055788  .00004978  00000+0  19081-3 0  9990
2 46912  36.8966 271.3759 0002606 173.0036 187.0750 15.26341174312895
R2                      
1 46913U 20081J   26192.26885194  .00004535  00000+0  17703-3 0  9994
2 46913  36.8983 272.9162 0007276 132.8084 227.3277 15.25786273315666
KSM1-B                  
1 46914U 20081K   26192.52595763  .00004591  00000+0  18431-3 0  9995
2 46914  36.9021 278.7875 0004224 128.3544 231.7585 15.24855790315905
GONETS-M 20             
1 47227U 20091A   26192.55755282 -.00000084  00000+0 -68054-3 0  9992
2 47227  82.5049 287.2879 0022079 126.4925 233.8193 12.42894015254101
GONETS-M 21             
1 47228U 20091B   26192.53153712 -.00000074  00000+0 -60406-3 0  9993
2 47228  82.4973 285.9962 0015771 139.4068 220.8190 12.42887118254095
GONETS-M 22             
1 47229U 20091C   26192.50452916 -.00000036  00000+0 -33089-3 0  9994
2 47229  82.5031 286.9231 0022957 122.0421 238.2893 12.42893304254049
CUBEL                   
1 47448U 21006AM  26192.37289796  .00005610  00000+0  13370-3 0  9995
2 47448  97.2314 242.7377 0008060  93.2723 266.9446 15.41950819303485
ARKTIKA-M 1             
1 47719U 21016A   26188.42887598 -.00000257  00000+0  00000+0 0  9997
2 47719  63.2524  54.6812 7295086 270.0380  14.5466  2.00614486 39194
STARLINK-2342           
1 47883U 21021Z   26192.58335647  .00166426  21340-4  51473-3 0  9999
2 47883  53.1514  24.9275 0007461 271.4486 178.9301 15.91374531  5687
GRUS-1B                 
1 47934U 21022C   26192.54527975  .00000729  00000+0  65163-4 0  9990
2 47934  97.5345  74.9316 0014468 231.8252 128.1669 14.98767823289544
UNISAT-7                
1 47945U 21022P   26192.18865987  .00008766  00000+0  21355-3 0  9993
2 47945  97.3867  97.3713 0008344   2.8377 357.2916 15.41125915293558
GLOBAL-9                
1 47971U 21023G   26191.95084196  .00014217  00000+0  27715-3 0  9996
2 47971  44.9804 116.8685 0002902 138.8106 221.3003 15.47492996298628
AII-BRAVO               
1 48270U 21034C   26192.11255608  .00002518  00000+0  18829-3 0  9995
2 48270  97.5593 246.4781 0006006 173.9942 186.1357 15.03645131283216
TYVAK-182A              
1 48271U 21034D   26190.11966090  .00003533  00000+0  24416-3 0  9995
2 48271  97.5707 248.6568 0004697 248.4605 111.6122 15.06366972283139
CSS (TIANHE)            
1 48274U 21035A   26192.36900667  .00001415  00000+0  22608-4 0  9995
2 48274  41.4687 175.0236 0002483 288.9992  71.0577 15.58018409296943
TYVAK-0130              
1 48606U 21041BF  26192.25042260  .00004360  00000+0  17055-3 0  9996
2 48606  52.9938 274.3077 0008595 243.7866 116.2248 15.27900210284066
HAIYANG-2D              
1 48621U 21043A   26192.51126419 -.00000195  00000+0 -10337-3 0  9993
2 48621  65.9981 244.1418 0011607 266.0171  93.9570 13.83372668259919
2021-050D               
1 48843U 21050D   26192.50684178  .00002919  00000+0  12496-3 0  9999
2 48843  97.3335 267.9913 0006056 162.9813 197.1628 15.23570951282669
TYVAK-0173              
1 48892U 21059P   26192.16824507  .00000916  00000+0  11957-3 0  9992
2 48892  96.0075 262.5639 0007526 316.7545  43.3081 14.81964242271790
MANDRAKE 2 ABLE         
1 48907U 21059AE  26192.49120499  .00013740  00000+0  19929-3 0  9990
2 48907  97.7028  24.1464 0003585 249.8894 110.1974 15.55966110280900
MANDRAKE 2 BAKER        
1 48908U 21059AF  26192.54181152  .00017132  00000+0  20677-3 0  9991
2 48908  97.6994  27.2476 0002444 235.4838 124.6188 15.60831279281092
PACE-1                  
1 48909U 21059AG  26191.99959182  .00083467  00000+0  36330-3 0  9993
2 48909  97.6745  32.9101 0003235 192.6042 167.5147 15.84551910281565
YAM-3                   
1 48915U 21059AN  26192.48877536  .00007665  00000+0  14306-3 0  9992
2 48915  97.6994  21.0420 0003796 261.5660  98.5160 15.49092129280756
FARADAY_PHOENIX         
1 48924U 21059AX  26192.50447986  .00369409  00000+0  13992-2 0  9993
2 48924  97.6804  33.3762 0008918 209.2138 150.8634 15.86709129281509
DEMO8 (TENZING)         
1 48951U 21059CA  26192.49440301  .00012767  00000+0  18552-3 0  9995
2 48951  97.7020  27.7809 0005519 247.6795 112.3874 15.55927061281083
FENGYUN 3E              
1 49008U 21062A   26192.51277056 -.00000049  00000+0 -22656-5 0  9995
2 49008  98.7502 195.6495 0002463  45.4320 314.7057 14.19905764260030
