OBJECT_NAME,OBJECT_ID,EPOCH,MEAN_MOTION,ECCENTRICITY,INCLINATION,RA_OF_ASC_NODE,ARG_OF_PERICENTER,MEAN_ANOMALY,EPHEMERIS_TYPE,CLASSIFICATION_TYPE,NORAD_CAT_ID,ELEMENT_SET_NO,REV_AT_EPOCH,BSTAR,MEAN_MOTION_DOT,MEAN_MOTION_DDOT
TIANQI-6,2020-076D,2026-07-11T10:44:11.783040,15.07340541,.0009925,34.9986,259.5561,20.0104,340.0994,0,U,46810,999,31224,.12363E-3,.1878E-4,0
KSM1-C,2020-081B,2026-07-11T13:12:08.457696,15.27143773,.0001542,36.8957,268.4905,47.3712,312.7167,0,U,46906,999,31289,.19276E-3,.5155E-4,0
KSM1-D,2020-081C,2026-07-11T12:27:28.734048,15.25072008,.000241,36.8971,278.1654,100.6234,259.4787,0,U,46907,999,31281,.19126E-3,.48E-4,0
KSM1-A,2020-081H,2026-07-11T12:00:48.200832,15.26341174,.0002606,36.8966,271.3759,173.0036,187.0750,0,U,46912,999,31289,.19081E-3,.4978E-4,0
R2,2020-081J,2026-07-11T06:27:08.807616,15.25786273,.0007276,36.8983,272.9162,132.8084,227.3277,0,U,46913,999,31566,.17703E-3,.4535E-4,0
KSM1-B,2020-081K,2026-07-11T12:37:22.739232,15.24855790,.0004224,36.9021,278.7875,128.3544,231.7585,0,U,46914,999,31590,.18431E-3,.4591E-4,0
GONETS-M 20,2020-091A,2026-07-11T13:22:52.563648,12.42894015,.0022079,82.5049,287.2879,126.4925,233.8193,0,U,47227,999,25410,-.68054E-3,-.84E-6,0
GONETS-M 21,2020-091B,2026-07-11T12:45:24.807168,12.42887118,.0015771,82.4973,285.9962,139.4068,220.8190,0,U,47228,999,25409,-.60406E-3,-.74E-6,0
GONETS-M 22,2020-091C,2026-07-11T12:06:31.319424,12.42893304,.0022957,82.5031,286.9231,122.0421,238.2893,0,U,47229,999,25404,-.33089E-3,-.36E-6,0
CUBEL,2021-006AM,2026-07-11T08:56:58.383744,15.41950819,.000806,97.2314,242.7377,93.2723,266.9446,0,U,47448,999,30348,.1337E-3,.561E-4,0
ARKTIKA-M 1,2021-016A,2026-07-07T10:17:34.884672,2.00614486,.72950864,63.2524,54.6812,270.0380,14.5466,0,U,47719,999,3919,0,-.257E-5,0
STARLINK-2342,2021-021Z,2026-07-11T14:00:01.999008,15.91374531,.0007461,53.1514,24.9275,271.4486,178.9301,0,U,47883,999,568,.51473E-3,.166426E-2,.2134E-4
GRUS-1B,2021-022C,2026-07-11T13:05:12.170400,14.98767823,.0014468,97.5345,74.9316,231.8252,128.1669,0,U,47934,999,28954,.65163E-4,.729E-5,0
UNISAT-7,2021-022P,2026-07-11T04:31:40.212768,15.41125915,.0008344,97.3867,97.3713,2.8377,357.2916,0,U,47945,999,29355,.21355E-3,.8766E-4,0
GLOBAL-9,2021-023G,2026-07-10T22:49:12.745344,15.47492996,.0002902,44.9804,116.8685,138.8106,221.3003,0,U,47971,999,29862,.27715E-3,.14217E-3,0
AII-BRAVO,2021-034C,2026-07-11T02:42:04.845312,15.03645131,.0006006,97.5593,246.4781,173.9942,186.1357,0,U,48270,999,28321,.18829E-3,.2518E-4,0
TYVAK-182A,2021-034D,2026-07-09T02:52:18.701760,15.06366972,.00046977,97.5707,248.6568,248.4605,111.6122,0,U,48271,999,28313,.24415567E-3,.3533E-4,0
CSS (TIANHE),2021-035A,2026-07-11T08:51:22.176288,15.58018409,.0002483,41.4687,175.0236,288.9992,71.0577,0,U,48274,999,29694,.22608E-4,.1415E-4,0
TYVAK-0130,2021-041BF,2026-07-11T06:00:36.512640,15.27900210,.0008595,52.9938,274.3077,243.7866,116.2248,0,U,48606,999,28406,.17055E-3,.436E-4,0
HAIYANG-2D,2021-043A,2026-07-11T12:16:13.226016,13.83372668,.0011607,65.9981,244.1418,266.0171,93.9570,0,U,48621,999,25991,-.10337E-3,-.195E-5,0
2021-050D,2021-050D,2026-07-11T12:09:51.129792,15.23570951,.0006056,97.3335,267.9913,162.9813,197.1628,0,U,48843,999,28266,.12496E-3,.2919E-4,0
TYVAK-0173,2021-059P,2026-07-11T04:02:16.374048,14.81964242,.0007526,96.0075,262.5639,316.7545,43.3081,0,U,48892,999,27179,.11957E-3,.916E-5,0
MANDRAKE 2 ABLE,2021-059AE,2026-07-11T11:47:20.111136,15.55966110,.0003585,97.7028,24.1464,249.8894,110.1974,0,U,48907,999,28090,.19929E-3,.1374E-3,0
MANDRAKE 2 BAKER,2021-059AF,2026-07-11T13:00:12.515328,15.60831279,.0002444,97.6994,27.2476,235.4838,124.6188,0,U,48908,999,28109,.20677E-3,.17132E-3,0
PACE-1,2021-059AG,2026-07-10T23:59:24.733248,15.84551910,.0003235,97.6745,32.9101,192.6042,167.5147,0,U,48909,999,28156,.3633E-3,.83467E-3,0
YAM-3,2021-059AN,2026-07-11T11:43:50.191104,15.49092129,.0003796,97.6994,21.0420,261.5660,98.5160,0,U,48915,999,28075,.14306E-3,.7665E-4,0
FARADAY_PHOENIX,2021-059AX,2026-07-11T12:06:27.059904,15.86709129,.0008918,97.6804,33.3762,209.2138,150.8634,0,U,48924,999,28150,.13992E-2,.369409E-2,0
DEMO8 (TENZING),2021-059CA,2026-07-11T11:51:56.420064,15.55927061,.0005519,97.7020,27.7809,247.6795,112.3874,0,U,48951,999,28108,.18552E-3,.12767E-3,0
FENGYUN 3E,2021-062A,2026-07-11T12:18:23.376384,14.19905764,.0002463,98.7502,195.6495,45.4320,314.7057,0,U,49008,999,26003,-.22656E-5,-.49E-6,0
